{
  "type": "FeatureCollection",
  "features": [
    {
      "type": "Feature",
      "properties": {
        "norad_id": 31307,
        "name": "GALAXY 17 (G-17)",
        "group": "intelsat",
        "lat": -1.5486497977668248,
        "lon": -59.60387285013512,
        "alt_km": 35773.047481137124,
        "timestamp": "2025-12-06T20:37:55.726893+00:00",
        "meta_object_name": "GALAXY 17 (G-17)",
        "meta_object_id": "2007-016B",
        "meta_epoch": "2025-12-06T11:03:43.381728",
        "meta_mean_motion": 1.00270084,
        "meta_eccentricity": 0.0006069,
        "meta_inclination": 2.4834,
        "meta_ra_of_asc_node": 82.3546,
        "meta_arg_of_pericenter": 160.209,
        "meta_mean_anomaly": 273.8633,
        "meta_ephemeris_type": 0,
        "meta_classification_type": "U",
        "meta_norad_cat_id": 31307,
        "meta_element_set_no": 999,
        "meta_rev_at_epoch": 6787,
        "meta_bstar": 0,
        "meta_mean_motion_dot": -2e-06,
        "meta_mean_motion_ddot": 0,
        "tle_line1": "1 31307U 07016B   25340.46091877 -.00000200  00000+0  00000+0 0  9995",
        "tle_line2": "2 31307   2.4834  82.3546 0006069 160.2090 273.8633  1.00270084 67876"
      },
      "geometry": {
        "type": "Point",
        "coordinates": [
          -59.60387285013512,
          -1.5486497977668248
        ]
      }
    },
    {
      "type": "Feature",
      "properties": {
        "norad_id": 31862,
        "name": "DIRECTV 10",
        "group": "intelsat",
        "lat": 0.0015941691693429798,
        "lon": -77.42042407039841,
        "alt_km": 35786.0634931187,
        "timestamp": "2025-12-06T20:37:55.726905+00:00",
        "meta_object_name": "DIRECTV 10",
        "meta_object_id": "2007-032A",
        "meta_epoch": "2025-12-06T00:16:38.669952",
        "meta_mean_motion": 1.00271476,
        "meta_eccentricity": 3.614e-05,
        "meta_inclination": 0.0039,
        "meta_ra_of_asc_node": 84.3473,
        "meta_arg_of_pericenter": 112.2755,
        "meta_mean_anomaly": 139.8068,
        "meta_ephemeris_type": 0,
        "meta_classification_type": "U",
        "meta_norad_cat_id": 31862,
        "meta_element_set_no": 999,
        "meta_rev_at_epoch": 4365,
        "meta_bstar": 0,
        "meta_mean_motion_dot": -9.4e-07,
        "meta_mean_motion_ddot": 0,
        "tle_line1": "1 31862U 07032A   25340.01155868 -.00000094  00000+0  00000+0 0  9992",
        "tle_line2": "2 31862   0.0039  84.3473 0000361 112.2755 139.8068  1.00271476 43657"
      },
      "geometry": {
        "type": "Point",
        "coordinates": [
          -77.42042407039841,
          0.0015941691693429798
        ]
      }
    },
    {
      "type": "Feature",
      "properties": {
        "norad_id": 32253,
        "name": "INTELSAT 11 (IS-11)",
        "group": "intelsat",
        "lat": -0.8663019962490042,
        "lon": -83.01473357337872,
        "alt_km": 36099.737940469735,
        "timestamp": "2025-12-06T20:37:55.726917+00:00",
        "meta_object_name": "INTELSAT 11 (IS-11)",
        "meta_object_id": "2007-044B",
        "meta_epoch": "2025-12-06T10:52:48.588096",
        "meta_mean_motion": 0.99047176,
        "meta_eccentricity": 0.00092679,
        "meta_inclination": 3.063,
        "meta_ra_of_asc_node": 81.0448,
        "meta_arg_of_pericenter": 163.0694,
        "meta_mean_anomaly": 247.9513,
        "meta_ephemeris_type": 0,
        "meta_classification_type": "U",
        "meta_norad_cat_id": 32253,
        "meta_element_set_no": 999,
        "meta_rev_at_epoch": 6654,
        "meta_bstar": 0,
        "meta_mean_motion_dot": 4.8e-07,
        "meta_mean_motion_ddot": 0,
        "tle_line1": "1 32253U 07044B   25340.45334014  .00000048  00000+0  00000+0 0  9998",
        "tle_line2": "2 32253   3.0630  81.0448 0009267 163.0694 247.9513  0.99047176 66542"
      },
      "geometry": {
        "type": "Point",
        "coordinates": [
          -83.01473357337872,
          -0.8663019962490042
        ]
      }
    },
    {
      "type": "Feature",
      "properties": {
        "norad_id": 32388,
        "name": "HORIZONS-2",
        "group": "intelsat",
        "lat": -1.5917861941724856,
        "lon": -48.388387241166065,
        "alt_km": 35771.1950999717,
        "timestamp": "2025-12-06T20:37:55.726930+00:00",
        "meta_object_name": "HORIZONS-2",
        "meta_object_id": "2007-063B",
        "meta_epoch": "2025-12-06T11:09:26.135712",
        "meta_mean_motion": 1.00271167,
        "meta_eccentricity": 0.00050786,
        "meta_inclination": 2.1044,
        "meta_ra_of_asc_node": 83.0266,
        "meta_arg_of_pericenter": 184.0397,
        "meta_mean_anomaly": 262.0182,
        "meta_ephemeris_type": 0,
        "meta_classification_type": "U",
        "meta_norad_cat_id": 32388,
        "meta_element_set_no": 999,
        "meta_rev_at_epoch": 6588,
        "meta_bstar": 0,
        "meta_mean_motion_dot": -2.47e-06,
        "meta_mean_motion_ddot": 0,
        "tle_line1": "1 32388U 07063B   25340.46488583 -.00000247  00000+0  00000+0 0  9992",
        "tle_line2": "2 32388   2.1044  83.0266 0005078 184.0397 262.0182  1.00271167 65887"
      },
      "geometry": {
        "type": "Point",
        "coordinates": [
          -48.388387241166065,
          -1.5917861941724856
        ]
      }
    },
    {
      "type": "Feature",
      "properties": {
        "norad_id": 32729,
        "name": "DIRECTV 11",
        "group": "intelsat",
        "lat": -0.0037567191453647224,
        "lon": -73.83414747861066,
        "alt_km": 35787.03983951961,
        "timestamp": "2025-12-06T20:37:55.726942+00:00",
        "meta_object_name": "DIRECTV 11",
        "meta_object_id": "2008-013A",
        "meta_epoch": "2025-12-05T21:47:02.789088",
        "meta_mean_motion": 1.0026924,
        "meta_eccentricity": 4.793e-05,
        "meta_inclination": 0.0051,
        "meta_ra_of_asc_node": 253.8201,
        "meta_arg_of_pericenter": 295.7852,
        "meta_mean_anomaly": 112.9152,
        "meta_ephemeris_type": 0,
        "meta_classification_type": "U",
        "meta_norad_cat_id": 32729,
        "meta_element_set_no": 999,
        "meta_rev_at_epoch": 4365,
        "meta_bstar": 0,
        "meta_mean_motion_dot": -1.16e-06,
        "meta_mean_motion_ddot": 0,
        "tle_line1": "1 32729U 08013A   25339.90767117 -.00000116  00000+0  00000+0 0  9992",
        "tle_line2": "2 32729   0.0051 253.8201 0000479 295.7852 112.9152  1.00269240 43653"
      },
      "geometry": {
        "type": "Point",
        "coordinates": [
          -73.83414747861066,
          -0.0037567191453647224
        ]
      }
    },
    {
      "type": "Feature",
      "properties": {
        "norad_id": 32951,
        "name": "GALAXY 18 (G-18)",
        "group": "intelsat",
        "lat": -0.024048647033280482,
        "lon": -97.64159755724906,
        "alt_km": 35772.537009976644,
        "timestamp": "2025-12-06T20:37:55.726954+00:00",
        "meta_object_name": "GALAXY 18 (G-18)",
        "meta_object_id": "2008-024A",
        "meta_epoch": "2025-12-06T12:09:38.659680",
        "meta_mean_motion": 1.00270023,
        "meta_eccentricity": 0.00033256,
        "meta_inclination": 0.0154,
        "meta_ra_of_asc_node": 44.8157,
        "meta_arg_of_pericenter": 211.8447,
        "meta_mean_anomaly": 238.2877,
        "meta_ephemeris_type": 0,
        "meta_classification_type": "U",
        "meta_norad_cat_id": 32951,
        "meta_element_set_no": 999,
        "meta_rev_at_epoch": 4392,
        "meta_bstar": 0,
        "meta_mean_motion_dot": 3.2e-07,
        "meta_mean_motion_ddot": 0,
        "tle_line1": "1 32951U 08024A   25340.50669745  .00000032  00000+0  00000+0 0  9993",
        "tle_line2": "2 32951   0.0154  44.8157 0003325 211.8447 238.2877  1.00270023 43921"
      },
      "geometry": {
        "type": "Point",
        "coordinates": [
          -97.64159755724906,
          -0.024048647033280482
        ]
      }
    },
    {
      "type": "Feature",
      "properties": {
        "norad_id": 33153,
        "name": "INTELSAT 25 (IS-25)",
        "group": "intelsat",
        "lat": -2.2053520976636993,
        "lon": -6.059435582827658,
        "alt_km": 35786.79824613843,
        "timestamp": "2025-12-06T20:37:55.726966+00:00",
        "meta_object_name": "INTELSAT 25 (IS-25)",
        "meta_object_id": "2008-034A",
        "meta_epoch": "2025-12-06T11:48:15.274944",
        "meta_mean_motion": 1.00270733,
        "meta_eccentricity": 0.00054422,
        "meta_inclination": 2.2109,
        "meta_ra_of_asc_node": 82.7166,
        "meta_arg_of_pericenter": 181.0007,
        "meta_mean_anomaly": 317.3863,
        "meta_ephemeris_type": 0,
        "meta_classification_type": "U",
        "meta_norad_cat_id": 33153,
        "meta_element_set_no": 999,
        "meta_rev_at_epoch": 6376,
        "meta_bstar": 0,
        "meta_mean_motion_dot": -2.18e-06,
        "meta_mean_motion_ddot": 0,
        "tle_line1": "1 33153U 08034A   25340.49184346 -.00000218  00000+0  00000+0 0  9993",
        "tle_line2": "2 33153   2.2109  82.7166 0005442 181.0007 317.3863  1.00270733 63769"
      },
      "geometry": {
        "type": "Point",
        "coordinates": [
          -6.059435582827658,
          -2.2053520976636993
        ]
      }
    }
  ]
}